CCSDS_OMM_VERS = 2.0
CREATION_DATE  = 
ORIGINATOR     = 

OBJECT_NAME    = HTV-X1
OBJECT_ID      = 2025-241A
CENTER_NAME    = EARTH
REF_FRAME      = TEME
TIME_SYSTEM    = UTC
MEAN_ELEMENT_THEORY = SGP/SGP4

EPOCH          = 2026-03-14T08:15:41.718240
MEAN_MOTION    = 15.22909998
ECCENTRICITY   = .00057324
INCLINATION    = 51.6357
RA_OF_ASC_NODE = 50.7099
ARG_OF_PERICENTER = 187.3441
MEAN_ANOMALY   = 172.7454

EPHEMERIS_TYPE = 0
CLASSIFICATION_TYPE = U
NORAD_CAT_ID   = 66174
ELEMENT_SET_NO = 999
REV_AT_EPOCH   = 2166
BSTAR          = .56774465E-3
MEAN_MOTION_DOT = .13194E-3
MEAN_MOTION_DDOT = 0

CCSDS_OMM_VERS = 2.0
CREATION_DATE  = 
ORIGINATOR     = 

OBJECT_NAME    = SZ-21 MODULE
OBJECT_ID      = 2025-246C
CENTER_NAME    = EARTH
REF_FRAME      = TEME
TIME_SYSTEM    = UTC
MEAN_ELEMENT_THEORY = SGP/SGP4

EPOCH          = 2026-03-18T12:56:49.994592
MEAN_MOTION    = 15.69230343
ECCENTRICITY   = .00004776
INCLINATION    = 41.4738
RA_OF_ASC_NODE = 148.8547
ARG_OF_PERICENTER = 292.1706
MEAN_ANOMALY   = 67.9085

EPHEMERIS_TYPE = 0
CLASSIFICATION_TYPE = U
NORAD_CAT_ID   = 66515
ELEMENT_SET_NO = 999
REV_AT_EPOCH   = 1946
BSTAR          = .24028713E-3
MEAN_MOTION_DOT = .28586E-3
MEAN_MOTION_DDOT = 0

CCSDS_OMM_VERS = 2.0
CREATION_DATE  = 
ORIGINATOR     = 

OBJECT_NAME    = SHENZHOU-22
OBJECT_ID      = 2025-272A
CENTER_NAME    = EARTH
REF_FRAME      = TEME
TIME_SYSTEM    = UTC
MEAN_ELEMENT_THEORY = SGP/SGP4

EPOCH          = 2026-03-19T05:58:10.805088
MEAN_MOTION    = 15.61165238
ECCENTRICITY   = .00058837
INCLINATION    = 41.4668
RA_OF_ASC_NODE = 149.9763
ARG_OF_PERICENTER = 332.6620
MEAN_ANOMALY   = 27.3909

EPHEMERIS_TYPE = 0
CLASSIFICATION_TYPE = U
NORAD_CAT_ID   = 66645
ELEMENT_SET_NO = 999
REV_AT_EPOCH   = 27910
BSTAR          = .22195746E-3
MEAN_MOTION_DOT = .19024E-3
MEAN_MOTION_DDOT = 0

CCSDS_OMM_VERS = 2.0
CREATION_DATE  = 
ORIGINATOR     = 

OBJECT_NAME    = SOYUZ-MS 28
OBJECT_ID      = 2025-275A
CENTER_NAME    = EARTH
REF_FRAME      = TEME
TIME_SYSTEM    = UTC
MEAN_ELEMENT_THEORY = SGP/SGP4

EPOCH          = 2026-03-19T03:06:36.144000
MEAN_MOTION    = 15.48370465
ECCENTRICITY   = .0006229
INCLINATION    = 51.6344
RA_OF_ASC_NODE = 25.6919
ARG_OF_PERICENTER = 207.4819
MEAN_ANOMALY   = 152.5840

EPHEMERIS_TYPE = 0
CLASSIFICATION_TYPE = U
NORAD_CAT_ID   = 66664
ELEMENT_SET_NO = 999
REV_AT_EPOCH   = 55771
BSTAR          = .17697854E-3
MEAN_MOTION_DOT = .9105E-4
MEAN_MOTION_DDOT = 0

CCSDS_OMM_VERS = 2.0
CREATION_DATE  = 
ORIGINATOR     = 

OBJECT_NAME    = DUPLEX
OBJECT_ID      = 1998-067XS
CENTER_NAME    = EARTH
REF_FRAME      = TEME
TIME_SYSTEM    = UTC
MEAN_ELEMENT_THEORY = SGP/SGP4

EPOCH          = 2026-03-19T02:06:53.567136
MEAN_MOTION    = 15.56807017
ECCENTRICITY   = .00028987
INCLINATION    = 51.6304
RA_OF_ASC_NODE = 22.4187
ARG_OF_PERICENTER = 151.7136
MEAN_ANOMALY   = 208.4013

EPHEMERIS_TYPE = 0
CLASSIFICATION_TYPE = U
NORAD_CAT_ID   = 66906
ELEMENT_SET_NO = 999
REV_AT_EPOCH   = 1659
BSTAR          = .36524993E-3
MEAN_MOTION_DOT = .26283E-3
MEAN_MOTION_DDOT = 0

CCSDS_OMM_VERS = 2.0
CREATION_DATE  = 
ORIGINATOR     = 

OBJECT_NAME    = ISS OBJECT XT
OBJECT_ID      = 1998-067XT
CENTER_NAME    = EARTH
REF_FRAME      = TEME
TIME_SYSTEM    = UTC
MEAN_ELEMENT_THEORY = SGP/SGP4

EPOCH          = 2026-03-18T20:54:18.938592
MEAN_MOTION    = 15.72318688
ECCENTRICITY   = .00050634
INCLINATION    = 51.6257
RA_OF_ASC_NODE = 18.6959
ARG_OF_PERICENTER = 139.9033
MEAN_ANOMALY   = 220.2340

EPHEMERIS_TYPE = 0
CLASSIFICATION_TYPE = U
NORAD_CAT_ID   = 66907
ELEMENT_SET_NO = 999
REV_AT_EPOCH   = 1662
BSTAR          = .10467298E-2
MEAN_MOTION_DOT = .14364E-2
MEAN_MOTION_DDOT = 0

CCSDS_OMM_VERS = 2.0
CREATION_DATE  = 
ORIGINATOR     = 

OBJECT_NAME    = ISS OBJECT XU
OBJECT_ID      = 1998-067XU
CENTER_NAME    = EARTH
REF_FRAME      = TEME
TIME_SYSTEM    = UTC
MEAN_ELEMENT_THEORY = SGP/SGP4

EPOCH          = 2026-03-19T05:59:38.277312
MEAN_MOTION    = 15.72572321
ECCENTRICITY   = .00053977
INCLINATION    = 51.6254
RA_OF_ASC_NODE = 16.7197
ARG_OF_PERICENTER = 143.2068
MEAN_ANOMALY   = 216.9301

EPHEMERIS_TYPE = 0
CLASSIFICATION_TYPE = U
NORAD_CAT_ID   = 66908
ELEMENT_SET_NO = 999
REV_AT_EPOCH   = 1668
BSTAR          = .10071021E-2
MEAN_MOTION_DOT = .139626E-2
MEAN_MOTION_DDOT = 0

CCSDS_OMM_VERS = 2.0
CREATION_DATE  = 
ORIGINATOR     = 

OBJECT_NAME    = SILVERSAT
OBJECT_ID      = 1998-067XV
CENTER_NAME    = EARTH
REF_FRAME      = TEME
TIME_SYSTEM    = UTC
MEAN_ELEMENT_THEORY = SGP/SGP4

EPOCH          = 2026-03-19T02:29:38.991264
MEAN_MOTION    = 15.76333596
ECCENTRICITY   = .0005741
INCLINATION    = 51.6239
RA_OF_ASC_NODE = 16.4913
ARG_OF_PERICENTER = 145.1948
MEAN_ANOMALY   = 214.9428

EPHEMERIS_TYPE = 0
CLASSIFICATION_TYPE = U
NORAD_CAT_ID   = 66909
ELEMENT_SET_NO = 999
REV_AT_EPOCH   = 1667
BSTAR          = .12034079E-2
MEAN_MOTION_DOT = .197952E-2
MEAN_MOTION_DDOT = 0

CCSDS_OMM_VERS = 2.0
CREATION_DATE  = 
ORIGINATOR     = 

OBJECT_NAME    = ISS OBJECT XW
OBJECT_ID      = 1998-067XW
CENTER_NAME    = EARTH
REF_FRAME      = TEME
TIME_SYSTEM    = UTC
MEAN_ELEMENT_THEORY = SGP/SGP4

EPOCH          = 2026-03-19T06:03:12.658176
MEAN_MOTION    = 15.71452835
ECCENTRICITY   = .00057567
INCLINATION    = 51.6251
RA_OF_ASC_NODE = 16.7321
ARG_OF_PERICENTER = 144.7614
MEAN_ANOMALY   = 215.3766

EPHEMERIS_TYPE = 0
CLASSIFICATION_TYPE = U
NORAD_CAT_ID   = 66910
ELEMENT_SET_NO = 999
REV_AT_EPOCH   = 1668
BSTAR          = .92850308E-3
MEAN_MOTION_DOT = .122466E-2
MEAN_MOTION_DDOT = 0

CCSDS_OMM_VERS = 2.0
CREATION_DATE  = 
ORIGINATOR     = 

OBJECT_NAME    = ISS OBJECT XX
OBJECT_ID      = 1998-067XX
CENTER_NAME    = EARTH
REF_FRAME      = TEME
TIME_SYSTEM    = UTC
MEAN_ELEMENT_THEORY = SGP/SGP4

EPOCH          = 2026-03-19T01:53:02.490720
MEAN_MOTION    = 15.80729939
ECCENTRICITY   = .0007377
INCLINATION    = 51.6217
RA_OF_ASC_NODE = 15.5449
ARG_OF_PERICENTER = 148.8704
MEAN_ANOMALY   = 211.2736

EPHEMERIS_TYPE = 0
CLASSIFICATION_TYPE = U
NORAD_CAT_ID   = 66911
ELEMENT_SET_NO = 999
REV_AT_EPOCH   = 1667
BSTAR          = .13206066E-2
MEAN_MOTION_DOT = .267247E-2
MEAN_MOTION_DDOT = 0

CCSDS_OMM_VERS = 2.0
CREATION_DATE  = 
ORIGINATOR     = 

OBJECT_NAME    = ISS OBJECT XY
OBJECT_ID      = 1998-067XY
CENTER_NAME    = EARTH
REF_FRAME      = TEME
TIME_SYSTEM    = UTC
MEAN_ELEMENT_THEORY = SGP/SGP4

EPOCH          = 2026-03-19T02:21:28.380096
MEAN_MOTION    = 15.65499214
ECCENTRICITY   = .00037052
INCLINATION    = 51.6284
RA_OF_ASC_NODE = 19.4777
ARG_OF_PERICENTER = 146.0797
MEAN_ANOMALY   = 214.0436

EPHEMERIS_TYPE = 0
CLASSIFICATION_TYPE = U
NORAD_CAT_ID   = 66912
ELEMENT_SET_NO = 999
REV_AT_EPOCH   = 1662
BSTAR          = .8464419E-3
MEAN_MOTION_DOT = .86899E-3
MEAN_MOTION_DDOT = 0

CCSDS_OMM_VERS = 2.0
CREATION_DATE  = 
ORIGINATOR     = 

OBJECT_NAME    = KNACKSAT-2
OBJECT_ID      = 1998-067XZ
CENTER_NAME    = EARTH
REF_FRAME      = TEME
TIME_SYSTEM    = UTC
MEAN_ELEMENT_THEORY = SGP/SGP4

EPOCH          = 2026-03-19T06:08:30.347520
MEAN_MOTION    = 15.52592097
ECCENTRICITY   = .00096946
INCLINATION    = 51.6323
RA_OF_ASC_NODE = 24.2882
ARG_OF_PERICENTER = 219.8771
MEAN_ANOMALY   = 140.1508

EPHEMERIS_TYPE = 0
CLASSIFICATION_TYPE = U
NORAD_CAT_ID   = 67683
ELEMENT_SET_NO = 999
REV_AT_EPOCH   = 627
BSTAR          = .47714019E-3
MEAN_MOTION_DOT = .29563E-3
MEAN_MOTION_DDOT = 0

