HTV-X1                  
1 66174U 25241A   26073.34423285  .00013194  00000+0  56774-3 0  9996
2 66174  51.6357  50.7099 0005732 187.3441 172.7454 15.22909998 21667
SZ-21 MODULE            
1 66515U 25246C   26077.53946753  .00028586  00000+0  24029-3 0  9994
2 66515  41.4738 148.8547 0000477 292.1706  67.9085 15.69230343 19465
SHENZHOU-22             
1 66645U 25272A   26078.24873617  .00019024  00000+0  22196-3 0  9994
2 66645  41.4668 149.9763 0005883 332.6620  27.3909 15.61165238279100
SOYUZ-MS 28             
1 66664U 25275A   26078.12958500  .00009105  00000+0  17698-3 0  9990
2 66664  51.6344  25.6919 0006229 207.4819 152.5840 15.48370465557718
DUPLEX                  
1 66906U 98067XS  26078.08811999  .00026283  00000+0  36525-3 0  9999
2 66906  51.6304  22.4187 0002898 151.7136 208.4013 15.56807017 16592
ISS OBJECT XT           
1 66907U 98067XT  26077.87105253  .00143640  00000+0  10467-2 0  9998
2 66907  51.6257  18.6959 0005063 139.9033 220.2340 15.72318688 16623
ISS OBJECT XU           
1 66908U 98067XU  26078.24974858  .00139626  00000+0  10071-2 0  9996
2 66908  51.6254  16.7197 0005397 143.2068 216.9301 15.72572321 16681
SILVERSAT               
1 66909U 98067XV  26078.10392351  .00197952  00000+0  12034-2 0  9991
2 66909  51.6239  16.4913 0005741 145.1948 214.9428 15.76333596 16679
ISS OBJECT XW           
1 66910U 98067XW  26078.25222984  .00122466  00000+0  92850-3 0  9996
2 66910  51.6251  16.7321 0005756 144.7614 215.3766 15.71452835 16686
ISS OBJECT XX           
1 66911U 98067XX  26078.07850105  .00267247  00000+0  13206-2 0  9993
2 66911  51.6217  15.5449 0007377 148.8704 211.2736 15.80729939 16676
ISS OBJECT XY           
1 66912U 98067XY  26078.09824514  .00086899  00000+0  84644-3 0  9998
2 66912  51.6284  19.4777 0003705 146.0797 214.0436 15.65499214 16627
KNACKSAT-2              
1 67683U 98067XZ  26078.25590680  .00029563  00000+0  47714-3 0  9998
2 67683  51.6323  24.2882 0009694 219.8771 140.1508 15.52592097  6270
